
# Worst residual: 79.94 km
# MJD 60843.000000 (2025 Jun 17  0:00)
2024-051C = NORAD 59278 = Tiandu-1
1 59278U 24051C   25168.49919926  .00000000  00000-0  00000-0 0 27309
2 59278 014.0408 046.3620 6819595 080.1151 281.2727 00.10920591    06

# Worst residual: 32.15 km
# MJD 60844.000000 (2025 Jun 18  0:00)
2024-051C = NORAD 59278 = Tiandu-1
1 59278U 24051C   25169.49919926  .00000000  00000-0  00000-0 0 27300
2 59278 014.1089 046.1047 6784226 080.6645 319.6717 00.11049171    00

# Worst residual: 14.79 km
# MJD 60845.000000 (2025 Jun 19  0:00)
2024-051C = NORAD 59278 = Tiandu-1
1 59278U 24051C   25170.49919926  .00000000  00000-0  00000-0 0 27302
2 59278 014.1412 046.1952 6764821 080.6701 359.3147 00.11143755    08

# Worst residual: 14.93 km
# MJD 60846.000000 (2025 Jun 20  0:00)
2024-051C = NORAD 59278 = Tiandu-1
1 59278U 24051C   25171.49919926  .00000000  00000-0  00000-0 0 27303
2 59278 014.1461 046.3253 6766938 080.4107 039.3717 00.11165992    02

# Worst residual: 18.47 km
# MJD 60847.000000 (2025 Jun 21  0:00)
2024-051C = NORAD 59278 = Tiandu-1
1 59278U 24051C   25172.49919926  .00000000  00000-0  00000-0 0 27629
2 59278 014.1854 046.5032 6784109 080.2211 079.1555 00.11149749    03

# Worst residual: 16.74 km
# MJD 60848.000000 (2025 Jun 22  0:00)
2024-051C = NORAD 59278 = Tiandu-1
1 59278U 24051C   25173.49919926  .00000000  00000-0  00000-0 0 27620
2 59278 014.2303 046.7713 6799510 080.0644 118.6734 00.11135452    05

# Worst residual: 8.90 km
# MJD 60849.000000 (2025 Jun 23  0:00)
2024-051C = NORAD 59278 = Tiandu-1
1 59278U 24051C   25174.49919926  .00000000  00000-0  00000-0 0 27621
2 59278 014.2544 046.9400 6805724 080.0363 158.1990 00.11129585    03

# Worst residual: 3.58 km
# MJD 60850.000000 (2025 Jun 24  0:00)
2024-051C = NORAD 59278 = Tiandu-1
1 59278U 24051C   25175.49919926  .00000000  00000-0  00000-0 0 27622
2 59278 014.2663 046.9357 6803732 080.1152 197.9942 00.11127504    07

# Worst residual: 15.16 km
# MJD 60851.000000 (2025 Jun 25  0:00)
2024-051C = NORAD 59278 = Tiandu-1
1 59278U 24051C   25176.49919926  .00000000  00000-0  00000-0 0 27623
2 59278 014.2816 046.8659 6799378 080.1287 238.2163 00.11113245    01

# Worst residual: 41.80 km
# MJD 60852.000000 (2025 Jun 26  0:00)
2024-051C = NORAD 59278 = Tiandu-1
1 59278U 24051C   25177.49919926  .00000000  00000-0  00000-0 0 27624
2 59278 014.2993 046.8955 6801757 079.8534 278.8859 00.11047602    06

# Worst residual: 163.37 km
# MJD 60853.000000 (2025 Jun 27  0:00)
2024-051C = NORAD 59278 = Tiandu-1
1 59278U 24051C   25178.49919926  .00000000  00000-0  00000-0 0 27625
2 59278 014.2857 047.1073 6842980 079.0320 319.9183 00.10761154    09

# Worst residual: 350.42 km
# MJD 60854.000000 (2025 Jun 28  0:00)
2024-051C = NORAD 59278 = Tiandu-1
1 59278U 24051C   25179.49919926  .00000000  00000-0  00000-0 0 27626
2 59278 014.2164 047.2192 6975438 080.2439 358.3487 00.10415749    03

# Worst residual: 145.27 km
# MJD 60855.000000 (2025 Jun 29  0:00)
2024-051C = NORAD 59278 = Tiandu-1
1 59278U 24051C   25180.49919926  .00000000  00000-0  00000-0 0 27628
2 59278 014.2847 047.3100 6849372 081.2253 037.5664 00.10831097    04

# Worst residual: 40.95 km
# MJD 60856.000000 (2025 Jun 30  0:00)
2024-051C = NORAD 59278 = Tiandu-1
1 59278U 24051C   25181.49919926  .00000000  00000-0  00000-0 0 27629
2 59278 014.2707 047.3530 6805130 080.5414 078.9193 00.11091917    07

# Worst residual: 13.27 km
# MJD 60857.000000 (2025 Jul  1  0:00)
2024-051C = NORAD 59278 = Tiandu-1
1 59278U 24051C   25182.49919926  .00000000  00000-0  00000-0 0 27620
2 59278 014.2744 047.3771 6801067 080.2904 119.6417 00.11149404    08

# Worst residual: 4.97 km
# MJD 60858.000000 (2025 Jul  2  0:00)
2024-051C = NORAD 59278 = Tiandu-1
1 59278U 24051C   25183.49919926  .00000000  00000-0  00000-0 0 27621
2 59278 014.2866 047.4328 6801514 080.1838 159.9901 00.11161592    01

# Worst residual: 5.52 km
# MJD 60859.000000 (2025 Jul  3  0:00)
2024-051C = NORAD 59278 = Tiandu-1
1 59278U 24051C   25184.49919926  .00000000  00000-0  00000-0 0 27622
2 59278 014.3010 047.4840 6797070 080.1422 200.1602 00.11158148    02

# Worst residual: 11.70 km
# MJD 60860.000000 (2025 Jul  4  0:00)
2024-051C = NORAD 59278 = Tiandu-1
1 59278U 24051C   25185.49919926  .00000000  00000-0  00000-0 0 27623
2 59278 014.3173 047.4680 6785340 080.1235 240.3406 00.11141161    08

# Worst residual: 19.44 km
# MJD 60861.000000 (2025 Jul  5  0:00)
2024-051C = NORAD 59278 = Tiandu-1
1 59278U 24051C   25186.49919926  .00000000  00000-0  00000-0 0 27624
2 59278 014.3408 047.4066 6772149 080.0040 280.6727 00.11093417    06

# Worst residual: 71.73 km
# MJD 60862.000000 (2025 Jul  6  0:00)
2024-051C = NORAD 59278 = Tiandu-1
1 59278U 24051C   25187.49919926  .00000000  00000-0  00000-0 0 27625
2 59278 014.3550 047.4630 6783241 079.5964 321.1004 00.10948335    00

# Worst residual: 86.11 km
# MJD 60863.000000 (2025 Jul  7  0:00)
2024-051C = NORAD 59278 = Tiandu-1
1 59278U 24051C   25188.49919926  .00000000  00000-0  00000-0 0 27626
2 59278 014.2920 047.5046 6813717 080.1795 000.3415 00.10938281    05

# Worst residual: 16.01 km
# MJD 60864.000000 (2025 Jul  8  0:00)
2024-051C = NORAD 59278 = Tiandu-1
1 59278U 24051C   25189.49919926  .00000000  00000-0  00000-0 0 27627
2 59278 014.4191 047.5104 6780575 080.1998 040.3200 00.11105350    02
